{
    "links": {
        "self": "http://www.neowsapp.com/rest/v1/neo/3843438?api_key=iIulBulltgU6a56xZRHN4H3l9WmuAYTsLGpBGhQ2"
    },
    "id": "3843438",
    "neo_reference_id": "3843438",
    "name": "(2019 OF4)",
    "designation": "2019 OF4",
    "nasa_jpl_url": "http://ssd.jpl.nasa.gov/sbdb.cgi?sstr=3843438",
    "absolute_magnitude_h": 26.4,
    "estimated_diameter": {
        "kilometers": {
            "estimated_diameter_min": 0.0139493823,
            "estimated_diameter_max": 0.0311917671
        },
        "meters": {
            "estimated_diameter_min": 13.9493822934,
            "estimated_diameter_max": 31.1917670523
        },
        "miles": {
            "estimated_diameter_min": 0.0086677416,
            "estimated_diameter_max": 0.0193816595
        },
        "feet": {
            "estimated_diameter_min": 45.7656914036,
            "estimated_diameter_max": 102.3351970157
        }
    },
    "is_potentially_hazardous_asteroid": false,
    "close_approach_data": [
        {
            "close_approach_date": "2019-07-26",
            "close_approach_date_full": "2019-Jul-26 11:04",
            "epoch_date_close_approach": 1564139040000,
            "relative_velocity": {
                "kilometers_per_second": "6.17882991",
                "kilometers_per_hour": "22243.7876760847",
                "miles_per_hour": "13821.4246257317"
            },
            "miss_distance": {
                "astronomical": "0.0219982234",
                "lunar": "8.5573089026",
                "kilometers": "3290887.364424158",
                "miles": "2044862.5867150604"
            },
            "orbiting_body": "Earth"
        },
        {
            "close_approach_date": "2027-09-24",
            "close_approach_date_full": "2027-Sep-24 08:11",
            "epoch_date_close_approach": 1821773460000,
            "relative_velocity": {
                "kilometers_per_second": "19.8105079705",
                "kilometers_per_hour": "71317.8286939717",
                "miles_per_hour": "44314.1252793182"
            },
            "miss_distance": {
                "astronomical": "0.4575975845",
                "lunar": "178.0054603705",
                "kilometers": "68455623.958345015",
                "miles": "42536352.290850607"
            },
            "orbiting_body": "Earth"
        }
    ],
    "orbital_data": {
        "orbit_id": "2",
        "orbit_determination_date": "2019-12-04 07:18:40",
        "first_observation_date": "2019-06-29",
        "last_observation_date": "2019-08-01",
        "data_arc_in_days": 33,
        "observations_used": 32,
        "orbit_uncertainty": "7",
        "minimum_orbit_intersection": ".0220184",
        "jupiter_tisserand_invariant": "3.768",
        "epoch_osculation": "2459000.5",
        "eccentricity": ".4644136305629961",
        "semi_major_axis": "1.935978468244201",
        "inclination": "1.728200939331421",
        "ascending_node_longitude": "127.6432750052775",
        "orbital_period": "983.8960365593616",
        "perihelion_distance": "1.036883679115123",
        "perihelion_argument": "179.1847809570225",
        "aphelion_distance": "2.835073257373277",
        "perihelion_time": "2458694.280080997595",
        "mean_anomaly": "112.043515518537",
        "mean_motion": ".3658923164879321",
        "equinox": "J2000",
        "orbit_class": {
            "orbit_class_type": "AMO",
            "orbit_class_description": "Near-Earth asteroid orbits similar to that of 1221 Amor",
            "orbit_class_range": "1.017 AU < q (perihelion) < 1.3 AU"
        }
    },
    "is_sentry_object": false
}